STARLINK-32833          
1 62873U 25022V   26195.44803019  .00010102  00000+0  30989-3 0  9994
2 62873  53.1601 259.6905 0001172  90.4568 269.6569 15.34382787 81328
STARLINK-32793          
1 62874U 25022W   26195.47748074  .00007447  00000+0  23134-3 0  9999
2 62874  53.1580 259.8718 0000681  95.7763 264.3317 15.34396965 81324
STARLINK-32834          
1 62875U 25022X   26195.50054002  .00018501  00000+0  55750-3 0  9997
2 62875  53.1594 259.3062 0001350  47.2034 312.9082 15.34391292 81332
STARLINK-11371 [DTC]    
1 62879U 25024A   26195.54023098  .00129635  00000+0  99677-3 0  9995
2 62879  43.0013 137.1379 0000677  15.6534 344.4355 15.70871914 83417
STARLINK-11352 [DTC]    
1 62880U 25024B   26195.94813883  .00066202  00000+0  51428-3 0  9992
2 62880  42.9996 134.1559 0001476 257.8414 102.2288 15.70888001 83486
STARLINK-11382 [DTC]    
1 62881U 25024C   26195.20638242  .00120775  00000+0  93030-3 0  9997
2 62881  43.0014 138.9245 0001555 260.5335  99.5357 15.70860595 83365
STARLINK-11432 [DTC]    
1 62882U 25024D   26195.53491880  .00103862  00000+0  80174-3 0  9992
2 62882  43.0044 137.0901 0000513 333.1368  26.9473 15.70873254 83419
STARLINK-11419 [DTC]    
1 62883U 25024E   26195.26465700  .00120759  00000+0  93080-3 0  9999
2 62883  43.0007 138.4984 0001318 275.5025  84.5692 15.70844675 83371
STARLINK-11437 [DTC]    
1 62884U 25024F   26195.52959755  .00110222  00000+0  84807-3 0  9998
2 62884  43.0005 137.0501 0003625 269.4667  90.5785 15.70920482 83413
STARLINK-11442 [DTC]    
1 62885U 25024G   26195.55602815  .00162338  00000+0  12411-2 0  9990
2 62885  43.0010 136.3681 0001062 292.9922  67.0833 15.70898009 83422
STARLINK-11365 [DTC]    
1 62886U 25024H   26195.56132936  .00125777  00000+0  96756-3 0  9995
2 62886  43.0041 136.4078 0002213 267.2400  92.8214 15.70872988 83420
STARLINK-11436 [DTC]    
1 62887U 25024J   26195.25934411  .00114271  00000+0  88056-3 0  9991
2 62887  43.0005 138.4542 0002030 269.0388  91.0247 15.70874016 83376
STARLINK-11438 [DTC]    
1 62888U 25024K   26195.56224103  .00139935  00000+0  10719-2 0  9990
2 62888  43.0022 136.4168 0002552 269.3675  90.6900 15.70924005 83420
STARLINK-11391 [DTC]    
1 62889U 25024L   26194.99970316  .00107873  00000+0  83345-3 0  9993
2 62889  42.9982 139.9308 0003217 295.8394  64.2141 15.70831740 83336
STARLINK-11431 [DTC]    
1 62890U 25024M   26195.55084552  .00131482  00000+0  10105-2 0  9992
2 62890  43.0003 137.2189 0000764 324.3380  35.7436 15.70876414 83415
STARLINK-11435 [DTC]    
1 62891U 25024N   26195.54553535  .00177004  00000+0  13511-2 0  9998
2 62891  43.0016 137.1757 0001100 297.9827  62.0929 15.70887390 83411
STARLINK-32878          
1 62892U 25024P   26195.40340232  .00009757  00000+0  36361-3 0  9990
2 62892  43.0010 329.8839 0002955 293.2432  66.8108 15.27579774 81647
STARLINK-32892          
1 62893U 25024Q   26195.40723584  .00004321  00000+0  16631-3 0  9996
2 62893  43.0024 329.9089 0000811 217.0813 142.9983 15.27605022 81640
STARLINK-32909          
1 62894U 25024R   26195.41367877  .00011060  00000+0  41082-3 0  9993
2 62894  43.0011 329.9587 0001029 212.4982 147.5807 15.27581681 81648
STARLINK-32901          
1 62895U 25024S   26195.45079534  .00009646  00000+0  35954-3 0  9996
2 62895  43.0005 329.3763 0002811 290.1905  69.8645 15.27582925 81659
STARLINK-32890          
1 62896U 25024T   26195.81354193  .00013409  00000+0  49541-3 0  9993
2 62896  43.0024 326.9381 0001408 262.6558  97.4134 15.27612346 81717
STARLINK-32893          
1 62897U 25024U   26195.43280340  .00011072  00000+0  41120-3 0  9993
2 62897  43.0038 329.2392 0001577 261.0841  98.9832 15.27584215 81653
STARLINK-32902          
1 62898U 25024V   26195.55971995  .00014057  00000+0  51921-3 0  9996
2 62898  43.0008 328.4638 0001295 210.4870 149.5907 15.27589981 81675
STARLINK-32661          
1 62899U 25024W   26195.71619193  .00011044  00000+0  41003-3 0  9997
2 62899  43.0035 327.9332 0002885 301.8992  58.1579 15.27596807 81694
STARLINK-11552 [DTC]    
1 62907U 25027A   26195.74644113  .00144715  00000+0  11088-2 0  9994
2 62907  43.0000 301.9181 0002590 284.6433  75.4147 15.70901097 83178
STARLINK-11561 [DTC]    
1 62908U 25027B   26195.59272912  .00114061  00000+0  87955-3 0  9990
2 62908  43.0010 302.4717 0001549 257.1485 102.9210 15.70858788 83115
STARLINK-11567 [DTC]    
1 62909U 25027C   26195.57162330  .00133655  00000+0  10283-2 0  9990
2 62909  43.0019 303.1956 0002076 283.2338  76.8298 15.70843231 83102
STARLINK-11569 [DTC]    
1 62910U 25027D   26195.34899264  .00106120  00000+0  81603-3 0  9992
2 62910  42.9994 304.0898 0001836 196.1933 163.8876 15.70954949 83079
STARLINK-11537 [DTC]    
1 62911U 25027E   26195.35963562  .00152730  00000+0  11713-2 0  9999
2 62911  42.9990 304.1715 0002310 269.6154  90.4449 15.70853818 83113
