OBJECT_NAME,OBJECT_ID,EPOCH,MEAN_MOTION,ECCENTRICITY,INCLINATION,RA_OF_ASC_NODE,ARG_OF_PERICENTER,MEAN_ANOMALY,EPHEMERIS_TYPE,CLASSIFICATION_TYPE,NORAD_CAT_ID,ELEMENT_SET_NO,REV_AT_EPOCH,BSTAR,MEAN_MOTION_DOT,MEAN_MOTION_DDOT
STARLINK-32833,2025-022V,2026-07-14T10:45:09.808416,15.34382787,.00011726,53.1601,259.6905,90.4568,269.6569,0,U,62873,999,8132,.30989077E-3,.10102E-3,0
STARLINK-32793,2025-022W,2026-07-14T11:27:34.335936,15.34396965,.0000681,53.1580,259.8718,95.7763,264.3317,0,U,62874,999,8132,.23133853E-3,.7447E-4,0
STARLINK-32834,2025-022X,2026-07-14T12:00:46.657728,15.34391292,.00013507,53.1594,259.3062,47.2034,312.9082,0,U,62875,999,8133,.55750091E-3,.18501E-3,0
STARLINK-11371 [DTC],2025-024A,2026-07-14T12:57:55.956672,15.70871914,.0000677,43.0013,137.1379,15.6534,344.4355,0,U,62879,999,8341,.99677E-3,.129635E-2,0
STARLINK-11352 [DTC],2025-024B,2026-07-14T22:45:19.194912,15.70888001,.00014764,42.9996,134.1559,257.8414,102.2288,0,U,62880,999,8348,.51428373E-3,.66202E-3,0
STARLINK-11382 [DTC],2025-024C,2026-07-14T04:57:11.441088,15.70860595,.00015556,43.0014,138.9245,260.5335,99.5357,0,U,62881,999,8336,.93030305E-3,.120775E-2,0
STARLINK-11432 [DTC],2025-024D,2026-07-14T12:50:16.984320,15.70873254,.0000513,43.0044,137.0901,333.1368,26.9473,0,U,62882,999,8341,.80174E-3,.103862E-2,0
STARLINK-11419 [DTC],2025-024E,2026-07-14T06:21:06.364800,15.70844675,.00013187,43.0007,138.4984,275.5025,84.5692,0,U,62883,999,8337,.93080412E-3,.120759E-2,0
STARLINK-11437 [DTC],2025-024F,2026-07-14T12:42:37.228320,15.70920482,.0003625,43.0005,137.0501,269.4667,90.5785,0,U,62884,999,8341,.84807E-3,.110222E-2,0
STARLINK-11442 [DTC],2025-024G,2026-07-14T13:20:40.832160,15.70898009,.0001062,43.0010,136.3681,292.9922,67.0833,0,U,62885,999,8342,.12411E-2,.162338E-2,0
STARLINK-11365 [DTC],2025-024H,2026-07-14T13:28:18.856704,15.70872988,.0002213,43.0041,136.4078,267.2400,92.8214,0,U,62886,999,8342,.96756E-3,.125777E-2,0
STARLINK-11436 [DTC],2025-024J,2026-07-14T06:13:27.331104,15.70874016,.00020301,43.0005,138.4542,269.0388,91.0247,0,U,62887,999,8337,.88055829E-3,.114271E-2,0
STARLINK-11438 [DTC],2025-024K,2026-07-14T13:29:37.624992,15.70924005,.0002552,43.0022,136.4168,269.3675,90.6900,0,U,62888,999,8342,.10719E-2,.139935E-2,0
STARLINK-11391 [DTC],2025-024L,2026-07-13T23:59:34.353024,15.70831740,.00032178,42.9982,139.9308,295.8394,64.2141,0,U,62889,999,8333,.83345344E-3,.107873E-2,0
STARLINK-11431 [DTC],2025-024M,2026-07-14T13:13:13.052928,15.70876414,.0000764,43.0003,137.2189,324.3380,35.7436,0,U,62890,999,8341,.10105E-2,.131482E-2,0
STARLINK-11435 [DTC],2025-024N,2026-07-14T13:05:34.254240,15.70887390,.00011006,43.0016,137.1757,297.9827,62.0929,0,U,62891,999,8341,.13510734E-2,.177004E-2,0
STARLINK-32878,2025-024P,2026-07-14T09:40:53.960448,15.27579774,.00029556,43.0010,329.8839,293.2432,66.8108,0,U,62892,999,8164,.36361015E-3,.9757E-4,0
STARLINK-32892,2025-024Q,2026-07-14T09:46:25.176576,15.27605022,.00008112,43.0024,329.9089,217.0813,142.9983,0,U,62893,999,8164,.16631348E-3,.4321E-4,0
STARLINK-32909,2025-024R,2026-07-14T09:55:41.845728,15.27581681,.00010291,43.0011,329.9587,212.4982,147.5807,0,U,62894,999,8164,.41082428E-3,.1106E-3,0
STARLINK-32901,2025-024S,2026-07-14T10:49:08.717376,15.27582925,.0002811,43.0005,329.3763,290.1905,69.8645,0,U,62895,999,8165,.35954161E-3,.9646E-4,0
STARLINK-32890,2025-024T,2026-07-14T19:31:30.022752,15.27612346,.00014089,43.0024,326.9381,262.6558,97.4134,0,U,62896,999,8171,.49540518E-3,.13409E-3,0
STARLINK-32893,2025-024U,2026-07-14T10:23:14.213760,15.27584215,.00015778,43.0038,329.2392,261.0841,98.9832,0,U,62897,999,8165,.41119732E-3,.11072E-3,0
STARLINK-32902,2025-024V,2026-07-14T13:25:59.803680,15.27589981,.00012951,43.0008,328.4638,210.4870,149.5907,0,U,62898,999,8167,.51920774E-3,.14057E-3,0
STARLINK-32661,2025-024W,2026-07-14T17:11:18.982752,15.27596807,.00028859,43.0035,327.9332,301.8992,58.1579,0,U,62899,999,8169,.41002912E-3,.11044E-3,0
STARLINK-11552 [DTC],2025-027A,2026-07-14T17:54:52.513632,15.70901097,.00025904,43.0000,301.9181,284.6433,75.4147,0,U,62907,999,8317,.11088373E-2,.144715E-2,0
STARLINK-11561 [DTC],2025-027B,2026-07-14T14:13:31.795968,15.70858788,.0001549,43.0010,302.4717,257.1485,102.9210,0,U,62908,999,8311,.87955E-3,.114061E-2,0
STARLINK-11567 [DTC],2025-027C,2026-07-14T13:43:08.253120,15.70843231,.0002076,43.0019,303.1956,283.2338,76.8298,0,U,62909,999,8310,.10283E-2,.133655E-2,0
STARLINK-11569 [DTC],2025-027D,2026-07-14T08:22:32.964096,15.70954949,.0001836,42.9994,304.0898,196.1933,163.8876,0,U,62910,999,8307,.81603312E-3,.10612E-2,0
STARLINK-11537 [DTC],2025-027E,2026-07-14T08:37:52.517568,15.70853818,.00023102,42.9990,304.1715,269.6154,90.4449,0,U,62911,999,8311,.11712778E-2,.15273E-2,0
